[{"OBJECT_NAME":"SATORO-T3","OBJECT_ID":"2025-135BP","EPOCH":"2026-03-09T21:54:53.647488","MEAN_MOTION":14.93899407,"ECCENTRICITY":0.00037302,"INCLINATION":97.7584,"RA_OF_ASC_NODE":184.5547,"ARG_OF_PERICENTER":312.3588,"MEAN_ANOMALY":47.7315,"EPHEMERIS_TYPE":0,"CLASSIFICATION_TYPE":"U","NORAD_CAT_ID":64589,"ELEMENT_SET_NO":999,"REV_AT_EPOCH":3908,"BSTAR":0.00028825982,"MEAN_MOTION_DOT":3.008e-5,"MEAN_MOTION_DDOT":0},{"OBJECT_NAME":"HORYU-2","OBJECT_ID":"2012-025D","EPOCH":"2026-03-09T21:35:32.524800","MEAN_MOTION":14.90371482,"ECCENTRICITY":0.00090917,"INCLINATION":98.2008,"RA_OF_ASC_NODE":197.914,"ARG_OF_PERICENTER":142.7189,"MEAN_ANOMALY":217.466,"EPHEMERIS_TYPE":0,"CLASSIFICATION_TYPE":"U","NORAD_CAT_ID":38340,"ELEMENT_SET_NO":999,"REV_AT_EPOCH":73393,"BSTAR":0.00059527617,"MEAN_MOTION_DOT":5.74e-5,"MEAN_MOTION_DDOT":0}]
